[{"OBJECT_NAME":"OBJECT H","OBJECT_ID":"2025-055H","EPOCH":"2026-03-09T23:29:50.051328","MEAN_MOTION":15.30330066,"ECCENTRICITY":0.00075967,"INCLINATION":97.636,"RA_OF_ASC_NODE":211.9572,"ARG_OF_PERICENTER":140.4354,"MEAN_ANOMALY":219.7441,"EPHEMERIS_TYPE":0,"CLASSIFICATION_TYPE":"U","NORAD_CAT_ID":63298,"ELEMENT_SET_NO":999,"REV_AT_EPOCH":5423,"BSTAR":0.0015582864,"MEAN_MOTION_DOT":0.00045901,"MEAN_MOTION_DDOT":0},{"OBJECT_NAME":"STARLINK-33676","OBJECT_ID":"2025-065E","EPOCH":"2026-03-09T12:09:19.350144","MEAN_MOTION":15.27592571,"ECCENTRICITY":0.00018885,"INCLINATION":43.0032,"RA_OF_ASC_NODE":107.9671,"ARG_OF_PERICENTER":272.2095,"MEAN_ANOMALY":87.8541,"EPHEMERIS_TYPE":0,"CLASSIFICATION_TYPE":"U","NORAD_CAT_ID":63403,"ELEMENT_SET_NO":999,"REV_AT_EPOCH":5281,"BSTAR":0.00079493578,"MEAN_MOTION_DOT":0.00021686,"MEAN_MOTION_DDOT":0}]
